{"type": "FeatureCollection", "features": [ {"type": "Feature", "properties": {"norad_id": 36430, "name": "COSMOS 2251 DEB", "group": "cosmos-2251-debris", "lat": -41.88772997836144, "lon": -45.59372004908096, "alt_km": 757.2639598686292, "timestamp": "2025-12-06T16:45:43.118844+00:00", "meta": {"OBJECT_NAME": "COSMOS 2251 DEB", "OBJECT_ID": "1993-036BAD", "EPOCH": "2025-12-02T02:24:06.345216", "MEAN_MOTION": 14.27749233, "ECCENTRICITY": 0.00972219, "INCLINATION": 74.0032, "RA_OF_ASC_NODE": 127.8413, "ARG_OF_PERICENTER": 280.0414, "MEAN_ANOMALY": 78.9776, "EPHEMERIS_TYPE": 0, "CLASSIFICATION_TYPE": "U", "NORAD_CAT_ID": 36430, "ELEMENT_SET_NO": 999, "REV_AT_EPOCH": 64405, "BSTAR": 0.00050130436, "MEAN_MOTION_DOT": 1.275e-05, "MEAN_MOTION_DDOT": 0}, "tle": {"line1": "1 36430U 93036BAD 25336.10007344  .00001275  00000+0  50130-3 0  9991", "line2": "2 36430  74.0032 127.8413 0097221 280.0414  78.9776 14.27749233644055"}}, "geometry": {"type": "Point", "coordinates": [-45.59372004908096, -41.88772997836144]}}, {"type": "Feature", "properties": {"norad_id": 36437, "name": "COSMOS 2251 DEB", "group": "cosmos-2251-debris", "lat": 19.07076186669151, "lon": 51.50679566378735, "alt_km": 662.883699369665, "timestamp": "2025-12-06T16:45:43.118854+00:00", "meta": {"OBJECT_NAME": "COSMOS 2251 DEB", "OBJECT_ID": "1993-036BAL", "EPOCH": "2025-12-05T11:16:55.990272", "MEAN_MOTION": 14.70490774, "ECCENTRICITY": 0.00232458, "INCLINATION": 73.9433, "RA_OF_ASC_NODE": 48.1884, "ARG_OF_PERICENTER": 279.6515, "MEAN_ANOMALY": 80.203, "EPHEMERIS_TYPE": 0, "CLASSIFICATION_TYPE": "U", "NORAD_CAT_ID": 36437, "ELEMENT_SET_NO": 999, "REV_AT_EPOCH": 65944, "BSTAR": 0.0028359965, "MEAN_MOTION_DOT": 0.00017283, "MEAN_MOTION_DDOT": 0}, "tle": {"line1": "1 36437U 93036BAL 25339.47009248  .00017283  00000+0  28360-2 0  9991", "line2": "2 36437  73.9433  48.1884 0023245 279.6515  80.2030 14.70490774659442"}}, "geometry": {"type": "Point", "coordinates": [51.50679566378735, 19.07076186669151]}}, {"type": "Feature", "properties": {"norad_id": 36439, "name": "COSMOS 2251 DEB", "group": "cosmos-2251-debris", "lat": 70.4135606210538, "lon": 172.45123163387737, "alt_km": 1014.9740831426598, "timestamp": "2025-12-06T16:45:43.118864+00:00", "meta": {"OBJECT_NAME": "COSMOS 2251 DEB", "OBJECT_ID": "1993-036BAN", "EPOCH": "2025-12-05T22:28:46.090848", "MEAN_MOTION": 13.47775996, "ECCENTRICITY": 0.04274442, "INCLINATION": 73.9681, "RA_OF_ASC_NODE": 47.5726, "ARG_OF_PERICENTER": 20.8517, "MEAN_ANOMALY": 340.9445, "EPHEMERIS_TYPE": 0, "CLASSIFICATION_TYPE": "U", "NORAD_CAT_ID": 36439, "ELEMENT_SET_NO": 999, "REV_AT_EPOCH": 58521, "BSTAR": 0.0012545098, "MEAN_MOTION_DOT": 1.329e-05, "MEAN_MOTION_DDOT": 0}, "tle": {"line1": "1 36439U 93036BAN 25339.93664457  .00001329  00000+0  12545-2 0  9995", "line2": "2 36439  73.9681  47.5726 0427444  20.8517 340.9445 13.47775996585218"}}, "geometry": {"type": "Point", "coordinates": [172.45123163387737, 70.4135606210538]}}, {"type": "Feature", "properties": {"norad_id": 36441, "name": "COSMOS 2251 DEB", "group": "cosmos-2251-debris", "lat": 51.42647108172331, "lon": 23.64547572773589, "alt_km": 491.037902071379, "timestamp": "2025-12-06T16:45:43.118874+00:00", "meta": {"OBJECT_NAME": "COSMOS 2251 DEB", "OBJECT_ID": "1993-036BAQ", "EPOCH": "2025-12-04T18:18:25.005024", "MEAN_MOTION": 15.06603971, "ECCENTRICITY": 0.01084902, "INCLINATION": 73.8352, "RA_OF_ASC_NODE": 6.3404, "ARG_OF_PERICENTER": 107.4279, "MEAN_ANOMALY": 253.8807, "EPHEMERIS_TYPE": 0, "CLASSIFICATION_TYPE": "U", "NORAD_CAT_ID": 36441, "ELEMENT_SET_NO": 999, "REV_AT_EPOCH": 86845, "BSTAR": 0.00090032635, "MEAN_MOTION_DOT": 0.00015248, "MEAN_MOTION_DDOT": 0}, "tle": {"line1": "1 36441U 93036BAQ 25338.76278941  .00015248  00000+0  90033-3 0  9991", "line2": "2 36441  73.8352   6.3404 0108490 107.4279 253.8807 15.06603971868459"}}, "geometry": {"type": "Point", "coordinates": [23.64547572773589, 51.42647108172331]}}, {"type": "Feature", "properties": {"norad_id": 36442, "name": "COSMOS 2251 DEB", "group": "cosmos-2251-debris", "lat": 73.57895591553108, "lon": 129.80247697125486, "alt_km": 483.6707679778119, "timestamp": "2025-12-06T16:45:43.118884+00:00", "meta": {"OBJECT_NAME": "COSMOS 2251 DEB", "OBJECT_ID": "1993-036BAR", "EPOCH": "2025-11-30T23:26:58.990560", "MEAN_MOTION": 15.24721511, "ECCENTRICITY": 0.00074124, "INCLINATION": 73.9503, "RA_OF_ASC_NODE": 64.3117, "ARG_OF_PERICENTER": 319.957, "MEAN_ANOMALY": 40.1082, "EPHEMERIS_TYPE": 0, "CLASSIFICATION_TYPE": "U", "NORAD_CAT_ID": 36442, "ELEMENT_SET_NO": 999, "REV_AT_EPOCH": 85736, "BSTAR": 0.0052461948, "MEAN_MOTION_DOT": 0.00132297, "MEAN_MOTION_DDOT": 0}, "tle": {"line1": "1 36442U 93036BAR 25334.97707165  .00132297  00000+0  52462-2 0  9993", "line2": "2 36442  73.9503  64.3117 0007412 319.9570  40.1082 15.24721511857361"}}, "geometry": {"type": "Point", "coordinates": [129.80247697125486, 73.57895591553108]}}, {"type": "Feature", "properties": {"norad_id": 36451, "name": "COSMOS 2251 DEB", "group": "cosmos-2251-debris", "lat": -12.673902682409784, "lon": 169.77841571927945, "alt_km": 709.6448385250969, "timestamp": "2025-12-06T16:45:43.118894+00:00", "meta": {"OBJECT_NAME": "COSMOS 2251 DEB", "OBJECT_ID": "1993-036BBA", "EPOCH": "2025-12-06T07:23:52.845792", "MEAN_MOTION": 14.18714463, "ECCENTRICITY": 0.01842542, "INCLINATION": 73.9539, "RA_OF_ASC_NODE": 346.7676, "ARG_OF_PERICENTER": 172.6411, "MEAN_ANOMALY": 187.7508, "EPHEMERIS_TYPE": 0, "CLASSIFICATION_TYPE": "U", "NORAD_CAT_ID": 36451, "ELEMENT_SET_NO": 999, "REV_AT_EPOCH": 84134, "BSTAR": 0.0013122334, "MEAN_MOTION_DOT": 3.2e-05, "MEAN_MOTION_DDOT": 0}, "tle": {"line1": "1 36451U 93036BBA 25340.30825053  .00003200  00000+0  13122-2 0  9995", "line2": "2 36451  73.9539 346.7676 0184254 172.6411 187.7508 14.18714463841347"}}, "geometry": {"type": "Point", "coordinates": [169.77841571927945, -12.673902682409784]}}, {"type": "Feature", "properties": {"norad_id": 36453, "name": "COSMOS 2251 DEB", "group": "cosmos-2251-debris", "lat": 65.29829441812285, "lon": -157.31592840503808, "alt_km": 660.7783927114606, "timestamp": "2025-12-06T16:45:43.118904+00:00", "meta": {"OBJECT_NAME": "COSMOS 2251 DEB", "OBJECT_ID": "1993-036BBC", "EPOCH": "2025-12-05T22:56:55.070880", "MEAN_MOTION": 14.52531816, "ECCENTRICITY": 0.00702998, "INCLINATION": 73.9232, "RA_OF_ASC_NODE": 165.2675, "ARG_OF_PERICENTER": 70.5371, "MEAN_ANOMALY": 80.8599, "EPHEMERIS_TYPE": 0, "CLASSIFICATION_TYPE": "U", "NORAD_CAT_ID": 36453, "ELEMENT_SET_NO": 999, "REV_AT_EPOCH": 84369, "BSTAR": 0.0014781095, "MEAN_MOTION_DOT": 6.214e-05, "MEAN_MOTION_DDOT": 0}, "tle": {"line1": "1 36453U 93036BBC 25339.95619295  .00006214  00000+0  14781-2 0  9995", "line2": "2 36453  73.9232 165.2675 0070299  70.5371  80.8599 14.52531816843696"}}, "geometry": {"type": "Point", "coordinates": [-157.31592840503808, 65.29829441812285]}}, {"type": "Feature", "properties": {"norad_id": 36459, "name": "COSMOS 2251 DEB", "group": "cosmos-2251-debris", "lat": -19.23175850132273, "lon": -163.55523363595455, "alt_km": 809.9935842653986, "timestamp": "2025-12-06T16:45:43.118914+00:00", "meta": {"OBJECT_NAME": "COSMOS 2251 DEB", "OBJECT_ID": "1993-036BBJ", "EPOCH": "2025-11-27T21:25:14.011392", "MEAN_MOTION": 14.2626117, "ECCENTRICITY": 0.0114133, "INCLINATION": 74.0487, "RA_OF_ASC_NODE": 26.6161, "ARG_OF_PERICENTER": 126.4072, "MEAN_ANOMALY": 234.7668, "EPHEMERIS_TYPE": 0, "CLASSIFICATION_TYPE": "U", "NORAD_CAT_ID": 36459, "ELEMENT_SET_NO": 999, "REV_AT_EPOCH": 7670, "BSTAR": 0.0017749, "MEAN_MOTION_DOT": 4.537e-05, "MEAN_MOTION_DDOT": 0}, "tle": {"line1": "1 36459U 93036BBJ 25331.89252328  .00004537  00000+0  17749-2 0  9999", "line2": "2 36459  74.0487  26.6161 0114133 126.4072 234.7668 14.26261170 76702"}}, "geometry": {"type": "Point", "coordinates": [-163.55523363595455, -19.23175850132273]}}, {"type": "Feature", "properties": {"norad_id": 36470, "name": "COSMOS 2251 DEB", "group": "cosmos-2251-debris", "lat": -64.35812175628993, "lon": -130.18204114452698, "alt_km": 569.3652409401548, "timestamp": "2025-12-06T16:45:43.118924+00:00", "meta": {"OBJECT_NAME": "COSMOS 2251 DEB", "OBJECT_ID": "1993-036BBV", "EPOCH": "2025-12-02T03:03:18.136800", "MEAN_MOTION": 15.05586615, "ECCENTRICITY": 0.00218493, "INCLINATION": 73.8455, "RA_OF_ASC_NODE": 276.4446, "ARG_OF_PERICENTER": 104.1241, "MEAN_ANOMALY": 256.2378, "EPHEMERIS_TYPE": 0, "CLASSIFICATION_TYPE": "U", "NORAD_CAT_ID": 36470, "ELEMENT_SET_NO": 999, "REV_AT_EPOCH": 65934, "BSTAR": 0.0040110233, "MEAN_MOTION_DOT": 0.00058582, "MEAN_MOTION_DDOT": 0}, "tle": {"line1": "1 36470U 93036BBV 25336.12729325  .00058582  00000+0  40110-2 0  9996", "line2": "2 36470  73.8455 276.4446 0021849 104.1241 256.2378 15.05586615659346"}}, "geometry": {"type": "Point", "coordinates": [-130.18204114452698, -64.35812175628993]}}, {"type": "Feature", "properties": {"norad_id": 36528, "name": "COSMOS 2251 DEB", "group": "cosmos-2251-debris", "lat": -38.07931557917393, "lon": -10.788375685620457, "alt_km": 735.9253935271408, "timestamp": "2025-12-06T16:45:43.118935+00:00", "meta": {"OBJECT_NAME": "COSMOS 2251 DEB", "OBJECT_ID": "1993-036BCN", "EPOCH": "2025-11-28T19:45:32.756256", "MEAN_MOTION": 14.30521775, "ECCENTRICITY": 0.00858193, "INCLINATION": 74.0168, "RA_OF_ASC_NODE": 170.5765, "ARG_OF_PERICENTER": 223.2164, "MEAN_ANOMALY": 136.2231, "EPHEMERIS_TYPE": 0, "CLASSIFICATION_TYPE": "U", "NORAD_CAT_ID": 36528, "ELEMENT_SET_NO": 999, "REV_AT_EPOCH": 64228, "BSTAR": 0.00075224171, "MEAN_MOTION_DOT": 2.015e-05, "MEAN_MOTION_DDOT": 0}, "tle": {"line1": "1 36528U 93036BCN 25332.82329579  .00002015  00000+0  75224-3 0  9995", "line2": "2 36528  74.0168 170.5765 0085819 223.2164 136.2231 14.30521775642289"}}, "geometry": {"type": "Point", "coordinates": [-10.788375685620457, -38.07931557917393]}}]}